NORAD_CAT_ID,OBJECT_NAME,OBJECT_TYPE,EPOCH,MEAN_MOTION,ECCENTRICITY,INCLINATION,RA_OF_ASC_NODE,ARG_OF_PERICENTER,MEAN_ANOMALY,BSTAR,MEAN_MOTION_DOT,MEAN_MOTION_DDOT,TLE_LINE0,TLE_LINE1,TLE_LINE2,SEMIMAJOR_AXIS,PERIOD,APOGEE,PERIGEE,DECAYED
51987.0,STARLINK-3644,PAYLOAD,2022-03-24 20:00:01,15.73163044,9.67e-05,53.2177,64.1658,96.2868,181.3934,0.00063183,0.00088854,0.0,0 STARLINK-3644,1 51987U 22025AH  22083.83334491  .00088854  00000-0  63183-3 0  9998,2 51987  53.2177  64.1658 0000967  96.2868 181.3934 15.73163044  3677,6728.001,91.535,350.516,349.215,0.0
51987.0,STARLINK-3644,PAYLOAD,2022-03-24 22:00:00,15.73197016,0.0001098,53.2179,63.7534,97.4247,292.4746,0.00024057,0.00033272,0.0,0 STARLINK-3644,1 51987U 22025AH  22083.91667824  .00033272  00000-0  24057-3 0  9997,2 51987  53.2179  63.7534 0001098  97.4247 292.4746 15.73197016  2633,6727.904,91.533,350.50699999999995,349.03,0.0
51987.0,STARLINK-3644,PAYLOAD,2022-03-25 04:00:00,15.73214774,0.0001154,53.218,62.5181,89.6778,276.9186,-0.0003682,-0.00052007,0.0,0 STARLINK-3644,1 51987U 22025AH  22084.16667824 -.00052007  00000-0 -36820-3 0  9995,2 51987  53.2180  62.5181 0001154  89.6778 276.9186 15.73214774  3722,6727.853,91.532,350.494,348.94199999999995,0.0
51987.0,STARLINK-3644,PAYLOAD,2022-03-25 12:00:00,15.73225469,0.0001095,53.2178,60.8688,84.2137,11.2945,-0.0004541,-0.00063935,0.0,0 STARLINK-3644,1 51987U 22025AH  22084.50001157 -.00063935  00000-0 -45410-3 0  9991,2 51987  53.2178  60.8688 0001095  84.2137  11.2945 15.73225469  3777,6727.823,91.532,350.4240000000001,348.951,0.0
51987.0,STARLINK-3644,PAYLOAD,2022-03-25 14:00:01,15.73230541,0.0001053,53.218,60.4559,89.331,118.4094,-0.0006527999999999,-0.00091363,0.0,0 STARLINK-3644,1 51987U 22025AH  22084.58334491 -.00091363  00000-0 -65280-3 0  9992,2 51987  53.2180  60.4559 0001053  89.3310 118.4094 15.73230541  2744,6727.808000000001,91.531,350.38199999999995,348.965,0.0
51987.0,STARLINK-3644,PAYLOAD,2022-03-25 20:00:01,15.73142939,9.64e-05,53.2181,59.2174,99.7105,84.7392,0.00070362,0.00099056,0.0,0 STARLINK-3644,1 51987U 22025AH  22084.83334491  .00099056  00000-0  70362-3 0  9992,2 51987  53.2181  59.2174 0000964  99.7105  84.7392 15.73142939  3820,6728.058000000001,91.537,350.571,349.274,0.0
51987.0,STARLINK-3644,PAYLOAD,2022-03-25 22:00:01,15.73168121,0.0001002999999999,53.2184,58.8048,102.4696,194.2606,0.00056451,0.00079246,0.0,0 STARLINK-3644,1 51987U 22025AH  22084.91668981  .00079246  00000-0  56451-3 0  9997,2 51987  53.2184  58.8048 0001003 102.4696 194.2606 15.73168121  2791,6727.986,91.535,350.526,349.176,0.0
51987.0,STARLINK-3644,PAYLOAD,2022-03-26 04:00:00,15.73214145,0.0001089,53.2182,57.5698,88.919,184.4248,0.00013836,0.00018853,0.0,0 STARLINK-3644,1 51987U 22025AH  22085.16667824  .00018853  00000-0  13836-3 0  9997,2 51987  53.2182  57.5698 0001089  88.9190 184.4248 15.73214145  3889,6727.855,91.532,350.45300000000015,348.987,0.0
51987.0,STARLINK-3644,PAYLOAD,2022-03-26 14:00:01,15.73226388,0.0001139,53.2179,55.5073,91.7208,22.8154,-0.00036605,-0.00051734,0.0,0 STARLINK-3644,1 51987U 22025AH  22085.58334491 -.00051734  00000-0 -36605-3 0  9990,2 51987  53.2179  55.5073 0001139  91.7208  22.8154 15.73226388  2903,6727.82,91.532,350.451,348.9190000000001,0.0
51987.0,STARLINK-3644,PAYLOAD,2022-03-26 20:00:01,15.73181871,0.0001148,53.2179,54.269,103.5601,347.6863,6.799100000000001e-05,8.925e-05,0.0,0 STARLINK-3644,1 51987U 22025AH  22085.83334491  .00008925  00000-0  67991-4 0  9993,2 51987  53.2179  54.2690 0001148 103.5601 347.6863 15.73181871  3984,6727.946999999999,91.534,350.584,349.039,0.0
51987.0,STARLINK-3644,PAYLOAD,2022-03-26 22:00:00,15.73172656,0.0001167,53.2181,53.8569,103.8539,99.6218,0.00027604,0.00038251,0.0,0 STARLINK-3644,1 51987U 22025AH  22085.91667824  .00038251  00000-0  27604-3 0  9992,2 51987  53.2181  53.8569 0001167 103.8539  99.6218 15.73172656  2956,6727.973000000001,91.535,350.62300000000016,349.05300000000005,0.0
51987.0,STARLINK-3644,PAYLOAD,2022-03-27 14:00:01,15.73192167,0.0001242,53.2182,50.5588,97.7724,283.5316,0.00023141,0.00031969,0.0,0 STARLINK-3644,1 51987U 22025AH  22086.58334491  .00031969  00000-0  23141-3 0  9998,2 51987  53.2182  50.5588 0001242  97.7724 283.5316 15.73192167  3068,6727.918000000002,91.534,350.61800000000005,348.94699999999995,0.0
51987.0,STARLINK-3644,PAYLOAD,2022-03-27 22:00:01,15.73223897,0.0001347,53.2186,48.9083,103.9025,6.3851,0.00042213,0.00059102,0.0,0 STARLINK-3644,1 51987U 22025AH  22086.91668981  .00059102  00000-0  42213-3 0  9999,2 51987  53.2186  48.9083 0001347 103.9025   6.3851 15.73223897  3119,6727.8269999999975,91.532,350.598,348.786,0.0
51987.0,STARLINK-3644,PAYLOAD,2022-03-28 04:00:00,15.73299053,0.000124,53.2184,47.6729,94.6674,352.2987,-0.00065676,-0.00092176,0.0,0 STARLINK-3644,1 51987U 22025AH  22087.16667824 -.00092176  00000-0 -65676-3 0  9990,2 51987  53.2184  47.6729 0001240  94.6674 352.2987 15.73299053  4197,6727.613,91.527,350.31199999999984,348.644,0.0
51987.0,STARLINK-3644,PAYLOAD,2022-03-28 14:00:01,15.73238566,0.0001172,53.2182,45.6096,103.0307,185.2662,-0.00054313,-0.00076281,0.0,0 STARLINK-3644,1 51987U 22025AH  22087.58335648 -.00076281  00000-0 -54313-3 0  9997,2 51987  53.2182  45.6096 0001172 103.0307 185.2662 15.73238566  3221,6727.785,91.531,350.439,348.862,0.0
51987.0,STARLINK-3644,PAYLOAD,2022-03-28 20:00:01,15.73168344,0.0001203,53.2183,44.3716,110.9469,153.9892,0.000446,0.00062353,0.0,0 STARLINK-3644,1 51987U 22025AH  22087.83334491  .00062353  00000-0  44600-3 0  9991,2 51987  53.2183  44.3716 0001203 110.9469 153.9892 15.73168344  4301,6727.985,91.535,350.66,349.041,0.0
51987.0,STARLINK-3644,PAYLOAD,2022-03-28 22:00:00,15.73215458,0.0001203,53.2185,43.9597,109.8053,267.3445,-0.0001728,-0.00024815,0.0,0 STARLINK-3644,1 51987U 22025AH  22087.91667824 -.00024815  00000-0 -17280-3 0  9996,2 51987  53.2185  43.9597 0001203 109.8053 267.3445 15.73215458  3279,6727.851,91.532,350.525,348.907,0.0
51987.0,STARLINK-3644,PAYLOAD,2022-03-29 04:00:00,15.73204459,0.0001190999999999,53.2183,42.7243,102.0498,251.8071,-0.00038317,-0.0005406,0.0,0 STARLINK-3644,1 51987U 22025AH  22088.16667824 -.00054060  00000-0 -38317-3 0  9993,2 51987  53.2183  42.7243 0001191 102.0498 251.8071 15.73204459  4358,6727.882,91.533,350.5490000000001,348.946,0.0
51987.0,STARLINK-3644,PAYLOAD,2022-03-29 14:00:01,15.73156619,0.0001008,53.2187,40.6612,110.7502,84.234,0.00030505,0.00042328,0.0,0 STARLINK-3644,1 51987U 22025AH  22088.58334491  .00042328  00000-0  30505-3 0  9993,2 51987  53.2187  40.6612 0001008 110.7502  84.2340 15.73156619  3381,6728.019,91.536,350.56199999999984,349.206,0.0
51987.0,STARLINK-3644,PAYLOAD,2022-03-29 22:00:00,15.73238757,0.0001045,53.2191,39.0114,120.2434,163.6218,-0.00029302,-0.00041607,0.0,0 STARLINK-3644,1 51987U 22025AH  22088.91667824 -.00041607  00000-0 -29302-3 0  9993,2 51987  53.2191  39.0114 0001045 120.2434 163.6218 15.73238757  3432,6727.785,91.531,350.353,348.94699999999995,0.0
51987.0,STARLINK-3644,PAYLOAD,2022-03-30 04:00:00,15.7319723,9.45e-05,53.2191,37.776,105.4008,155.1898,1.0964e-05,9.19e-06,0.0,0 STARLINK-3644,1 51987U 22025AH  22089.16667824  .00000919  00000-0  10964-4 0  9995,2 51987  53.2191  37.7760 0000945 105.4008 155.1898 15.73197230  4514,6727.903,91.533,350.404,349.13199999999995,0.0
51987.0,STARLINK-3644,PAYLOAD,2022-03-30 14:00:01,15.73198107,0.0001068,53.219,35.7128,115.3274,346.4924,7.2943e-06,4.04e-06,0.0,0 STARLINK-3644,1 51987U 22025AH  22089.58335648  .00000404  00000-0  72943-5 0  9992,2 51987  53.2190  35.7128 0001068 115.3274 346.4924 15.73198107  3531,6727.901,91.533,350.4840000000001,349.047,0.0
51987.0,STARLINK-3644,PAYLOAD,2022-03-30 22:00:00,15.73181736,0.0001258,53.2191,34.0635,116.749,73.925,0.00031035,0.00043125,0.0,0 STARLINK-3644,1 51987U 22025AH  22089.91667824  .00043125  00000-0  31035-3 0  9995,2 51987  53.2191  34.0635 0001258 116.7490  73.9250 15.73181736  3593,6727.946999999999,91.534,350.659,348.966,0.0
51987.0,STARLINK-3644,PAYLOAD,2022-03-31 12:00:00,15.73211521,0.0001175,53.219,31.1776,115.0703,141.236,-0.00039993,-0.00056399,0.0,0 STARLINK-3644,1 51987U 22025AH  22090.50001157 -.00056399  00000-0 -39993-3 0  9993,2 51987  53.2190  31.1776 0001175 115.0703 141.2360 15.73211521  4726,6727.861999999999,91.533,350.51800000000014,348.93699999999984,0.0
51987.0,STARLINK-3644,PAYLOAD,2022-03-31 14:00:01,15.73162921,0.0001230999999999,53.2193,30.7647,120.5773,247.974,0.00029781,0.00041315,0.0,0 STARLINK-3644,1 51987U 22025AH  22090.58334491  .00041315  00000-0  29781-3 0  9995,2 51987  53.2193  30.7647 0001231 120.5773 247.9740 15.73162921  3692,6728.001,91.535,350.694,349.038,0.0
51987.0,STARLINK-3644,PAYLOAD,2022-03-31 20:00:01,15.73188515,0.0001361999999999,53.2185,29.5253,120.1965,225.0318,0.00078548,0.00111029,0.0,0 STARLINK-3644,1 51987U 22025AH  22090.83334491  .00111029  00000-0  78548-3 0  9998,2 51987  53.2185  29.5253 0001362 120.1965 225.0318 15.73188515  4771,6727.928000000001,91.534,350.709,348.87699999999984,0.0
51987.0,STARLINK-3644,PAYLOAD,2022-03-31 22:00:00,15.73222109,0.0001357,53.2187,29.1121,117.7086,339.7476,0.00052566,0.00073874,0.0,0 STARLINK-3644,1 51987U 22025AH  22090.91667824  .00073874  00000-0  52566-3 0  9993,2 51987  53.2187  29.1121 0001357 117.7086 339.7476 15.73222109  3712,6727.831999999999,91.532,350.61,348.784,0.0
51987.0,STARLINK-3644,PAYLOAD,2022-04-01 04:00:01,15.73631443,0.0001217,53.2189,27.8739,103.1023,331.1055,-0.0078032,-0.0100886,0.0,0 STARLINK-3644,1 51987U 22025AH  22091.16668981 -.01008860  00000-0 -78032-2 0  9997,2 51987  53.2189  27.8739 0001217 103.1023 331.1055 15.73631443  4826,6726.665,91.508,349.349,347.712,0.0
51987.0,STARLINK-3644,PAYLOAD,2022-04-01 12:00:00,15.7280103,0.0001269,53.2176,26.2161,115.1767,47.9737,0.00016743,0.00022546,0.0,0 STARLINK-3644,1 51987U 22025AH  22091.50001157  .00022546  00000-0  16743-3 0  9997,2 51987  53.2176  26.2161 0001269 115.1767  47.9737 15.72801030  4873,6729.033,91.556,351.75199999999984,350.0440000000001,0.0
